{"fetched_at":"2026-07-17T06:38:18.454Z","source":"https://celestrak.org/NORAD/elements/gp.php?NAME=HULIANWANG&FORMAT=JSON","constellation":"guowang","records":[{"OBJECT_NAME":"HULIANWANG DIGUI-76","OBJECT_ID":"2025-187D","EPOCH":"2026-07-16T20:36:13.187808","CLASSIFICATION_TYPE":"U","MEAN_MOTION":13.29323792,"ECCENTRICITY":0.0000077,"INCLINATION":50.0011,"RA_OF_ASC_NODE":99.5789,"ARG_OF_PERICENTER":13.953,"MEAN_ANOMALY":346.1345,"EPHEMERIS_TYPE":0,"NORAD_CAT_ID":65308,"ELEMENT_SET_NO":999,"REV_AT_EPOCH":4364,"BSTAR":0.000072098,"MEAN_MOTION_DOT":-9.1e-7,"MEAN_MOTION_DDOT":0},{"OBJECT_NAME":"HULIANWANG DIGUI-77","OBJECT_ID":"2025-187E","EPOCH":"2026-07-16T20:24:02.522016","CLASSIFICATION_TYPE":"U","MEAN_MOTION":13.29323727,"ECCENTRICITY":0.0000115,"INCLINATION":50.0045,"RA_OF_ASC_NODE":99.6233,"ARG_OF_PERICENTER":198.5955,"MEAN_ANOMALY":161.4913,"EPHEMERIS_TYPE":0,"NORAD_CAT_ID":65309,"ELEMENT_SET_NO":999,"REV_AT_EPOCH":4364,"BSTAR":0.000067346,"MEAN_MOTION_DOT":-9.3e-7,"MEAN_MOTION_DDOT":0},{"OBJECT_NAME":"HULIANWANG DIGUI-78","OBJECT_ID":"2025-187F","EPOCH":"2026-07-16T19:24:03.748608","CLASSIFICATION_TYPE":"U","MEAN_MOTION":13.29322753,"ECCENTRICITY":0.0000087,"INCLINATION":50.0111,"RA_OF_ASC_NODE":99.577,"ARG_OF_PERICENTER":322.4696,"MEAN_ANOMALY":37.617,"EPHEMERIS_TYPE":0,"NORAD_CAT_ID":65310,"ELEMENT_SET_NO":999,"REV_AT_EPOCH":4364,"BSTAR":0.000041785,"MEAN_MOTION_DOT":-0.00000105,"MEAN_MOTION_DDOT":0},{"OBJECT_NAME":"HULIANWANG DIGUI-79","OBJECT_ID":"2025-187G","EPOCH":"2026-07-16T20:48:09.214848","CLASSIFICATION_TYPE":"U","MEAN_MOTION":13.29319551,"ECCENTRICITY":0.0000148,"INCLINATION":50.0041,"RA_OF_ASC_NODE":99.6973,"ARG_OF_PERICENTER":319.5206,"MEAN_ANOMALY":40.5655,"EPHEMERIS_TYPE":0,"NORAD_CAT_ID":65311,"ELEMENT_SET_NO":999,"REV_AT_EPOCH":4364,"BSTAR":0.000068687,"MEAN_MOTION_DOT":-9.2e-7,"MEAN_MOTION_DDOT":0},{"OBJECT_NAME":"HULIANWANG DIGUI-80","OBJECT_ID":"2025-187H","EPOCH":"2026-07-16T20:12:02.397024","CLASSIFICATION_TYPE":"U","MEAN_MOTION":13.29322905,"ECCENTRICITY":0.0000119,"INCLINATION":50.0031,"RA_OF_ASC_NODE":99.5437,"ARG_OF_PERICENTER":203.4963,"MEAN_ANOMALY":156.5903,"EPHEMERIS_TYPE":0,"NORAD_CAT_ID":65312,"ELEMENT_SET_NO":999,"REV_AT_EPOCH":4364,"BSTAR":0.000072461,"MEAN_MOTION_DOT":-9e-7,"MEAN_MOTION_DDOT":0},{"OBJECT_NAME":"HULIANWANG DIGUI-81","OBJECT_ID":"2025-187J","EPOCH":"2026-07-16T19:48:05.880384","CLASSIFICATION_TYPE":"U","MEAN_MOTION":13.29319727,"ECCENTRICITY":0.0000103,"INCLINATION":50.007,"RA_OF_ASC_NODE":99.5606,"ARG_OF_PERICENTER":314.5912,"MEAN_ANOMALY":45.4952,"EPHEMERIS_TYPE":0,"NORAD_CAT_ID":65313,"ELEMENT_SET_NO":999,"REV_AT_EPOCH":4365,"BSTAR":0.000065499,"MEAN_MOTION_DOT":-9.4e-7,"MEAN_MOTION_DDOT":0},{"OBJECT_NAME":"HULIANWANG DIGUI-82","OBJECT_ID":"2025-220A","EPOCH":"2026-07-16T15:04:30.988416","CLASSIFICATION_TYPE":"U","MEAN_MOTION":13.24409598,"ECCENTRICITY":0.0002173,"INCLINATION":86.4951,"RA_OF_ASC_NODE":33.9146,"ARG_OF_PERICENTER":100.2801,"MEAN_ANOMALY":259.8578,"EPHEMERIS_TYPE":0,"NORAD_CAT_ID":65817,"ELEMENT_SET_NO":999,"REV_AT_EPOCH":3881,"BSTAR":-0.000002075,"MEAN_MOTION_DOT":1.4e-7,"MEAN_MOTION_DDOT":0},{"OBJECT_NAME":"HULIANWANG DIGUI-83","OBJECT_ID":"2025-220B","EPOCH":"2026-07-16T14:53:43.917216","CLASSIFICATION_TYPE":"U","MEAN_MOTION":13.24409896,"ECCENTRICITY":0.00022,"INCLINATION":86.4974,"RA_OF_ASC_NODE":33.9766,"ARG_OF_PERICENTER":99.568,"MEAN_ANOMALY":260.5703,"EPHEMERIS_TYPE":0,"NORAD_CAT_ID":65818,"ELEMENT_SET_NO":999,"REV_AT_EPOCH":3881,"BSTAR":-0.000027138,"MEAN_MOTION_DOT":3e-8,"MEAN_MOTION_DDOT":0},{"OBJECT_NAME":"HULIANWANG DIGUI-84","OBJECT_ID":"2025-220C","EPOCH":"2026-07-16T14:42:47.968416","CLASSIFICATION_TYPE":"U","MEAN_MOTION":13.24409746,"ECCENTRICITY":0.0002149,"INCLINATION":86.4911,"RA_OF_ASC_NODE":33.7896,"ARG_OF_PERICENTER":100.3528,"MEAN_ANOMALY":259.7848,"EPHEMERIS_TYPE":0,"NORAD_CAT_ID":65819,"ELEMENT_SET_NO":999,"REV_AT_EPOCH":3881,"BSTAR":-0.000033647,"MEAN_MOTION_DOT":0,"MEAN_MOTION_DDOT":0},{"OBJECT_NAME":"HULIANWANG DIGUI-85","OBJECT_ID":"2025-220D","EPOCH":"2026-07-16T19:58:17.213088","CLASSIFICATION_TYPE":"U","MEAN_MOTION":13.24408671,"ECCENTRICITY":0.000212,"INCLINATION":86.4972,"RA_OF_ASC_NODE":33.8879,"ARG_OF_PERICENTER":101.597,"MEAN_ANOMALY":258.5402,"EPHEMERIS_TYPE":0,"NORAD_CAT_ID":65820,"ELEMENT_SET_NO":999,"REV_AT_EPOCH":3884,"BSTAR":-0.000036474,"MEAN_MOTION_DOT":-1e-8,"MEAN_MOTION_DDOT":0},{"OBJECT_NAME":"HULIANWANG DIGUI-86","OBJECT_ID":"2025-220E","EPOCH":"2026-07-16T14:21:14.452416","CLASSIFICATION_TYPE":"U","MEAN_MOTION":13.2441153,"ECCENTRICITY":0.0002063,"INCLINATION":86.4952,"RA_OF_ASC_NODE":33.8983,"ARG_OF_PERICENTER":85.3375,"MEAN_ANOMALY":274.7994,"EPHEMERIS_TYPE":0,"NORAD_CAT_ID":65821,"ELEMENT_SET_NO":999,"REV_AT_EPOCH":3881,"BSTAR":-0.0000087554,"MEAN_MOTION_DOT":1.1e-7,"MEAN_MOTION_DDOT":0},{"OBJECT_NAME":"HULIANWANG DIGUI-87","OBJECT_ID":"2025-231A","EPOCH":"2026-07-16T08:02:01.059072","CLASSIFICATION_TYPE":"U","MEAN_MOTION":13.29328137,"ECCENTRICITY":0.000052,"INCLINATION":50.0007,"RA_OF_ASC_NODE":71.2933,"ARG_OF_PERICENTER":354.7038,"MEAN_ANOMALY":5.3829,"EPHEMERIS_TYPE":0,"NORAD_CAT_ID":65995,"ELEMENT_SET_NO":999,"REV_AT_EPOCH":3676,"BSTAR":0.000056555,"MEAN_MOTION_DOT":-9.8e-7,"MEAN_MOTION_DDOT":0},{"OBJECT_NAME":"HULIANWANG DIGUI-88","OBJECT_ID":"2025-231B","EPOCH":"2026-07-16T02:49:18.488640","CLASSIFICATION_TYPE":"U","MEAN_MOTION":13.29323745,"ECCENTRICITY":0.00005027,"INCLINATION":49.9995,"RA_OF_ASC_NODE":72.1189,"ARG_OF_PERICENTER":338.2135,"MEAN_ANOMALY":21.8715,"EPHEMERIS_TYPE":0,"NORAD_CAT_ID":65996,"ELEMENT_SET_NO":999,"REV_AT_EPOCH":3673,"BSTAR":0.000049631827,"MEAN_MOTION_DOT":-0.00000101,"MEAN_MOTION_DDOT":0},{"OBJECT_NAME":"HULIANWANG DIGUI-89","OBJECT_ID":"2025-231C","EPOCH":"2026-07-16T15:02:59.661888","CLASSIFICATION_TYPE":"U","MEAN_MOTION":13.29328008,"ECCENTRICITY":0.0000569,"INCLINATION":49.9969,"RA_OF_ASC_NODE":70.0964,"ARG_OF_PERICENTER":346.0526,"MEAN_ANOMALY":14.033,"EPHEMERIS_TYPE":0,"NORAD_CAT_ID":65997,"ELEMENT_SET_NO":999,"REV_AT_EPOCH":3680,"BSTAR":0.000070752,"MEAN_MOTION_DOT":-9.1e-7,"MEAN_MOTION_DDOT":0},{"OBJECT_NAME":"HULIANWANG DIGUI-90","OBJECT_ID":"2025-231D","EPOCH":"2026-07-16T14:51:04.053888","CLASSIFICATION_TYPE":"U","MEAN_MOTION":13.29326413,"ECCENTRICITY":0.0000545,"INCLINATION":50,"RA_OF_ASC_NODE":70.116,"ARG_OF_PERICENTER":342.9061,"MEAN_ANOMALY":17.1792,"EPHEMERIS_TYPE":0,"NORAD_CAT_ID":65998,"ELEMENT_SET_NO":999,"REV_AT_EPOCH":3680,"BSTAR":0.000066182,"MEAN_MOTION_DOT":-9.3e-7,"MEAN_MOTION_DDOT":0},{"OBJECT_NAME":"HULIANWANG DIGUI-91","OBJECT_ID":"2025-231E","EPOCH":"2026-07-16T00:12:57.924864","CLASSIFICATION_TYPE":"U","MEAN_MOTION":13.29327064,"ECCENTRICITY":0.00005183,"INCLINATION":50.0018,"RA_OF_ASC_NODE":72.2724,"ARG_OF_PERICENTER":340.6024,"MEAN_ANOMALY":19.4829,"EPHEMERIS_TYPE":0,"NORAD_CAT_ID":65999,"ELEMENT_SET_NO":999,"REV_AT_EPOCH":3672,"BSTAR":0.00007191883,"MEAN_MOTION_DOT":-9.1e-7,"MEAN_MOTION_DDOT":0}]}
