HULIANWANG DIGUI-76     
1 65308U 25187D   26197.85848597 -.00000091  00000+0  72098-4 0  9994
2 65308  50.0011  99.5789 0000077  13.9530 346.1345 13.29323792 43647
HULIANWANG DIGUI-77     
1 65309U 25187E   26197.85002919 -.00000093  00000+0  67346-4 0  9997
2 65309  50.0045  99.6233 0000115 198.5955 161.4913 13.29323727 43641
HULIANWANG DIGUI-78     
1 65310U 25187F   26197.80837672 -.00000105  00000+0  41785-4 0  9999
2 65310  50.0111  99.5770 0000087 322.4696  37.6170 13.29322753 43647
HULIANWANG DIGUI-79     
1 65311U 25187G   26197.86677332 -.00000092  00000+0  68687-4 0  9996
2 65311  50.0041  99.6973 0000148 319.5206  40.5655 13.29319551 43641
HULIANWANG DIGUI-80     
1 65312U 25187H   26197.84169441 -.00000090  00000+0  72461-4 0  9995
2 65312  50.0031  99.5437 0000119 203.4963 156.5903 13.29322905 43645
HULIANWANG DIGUI-81     
1 65313U 25187J   26197.82506806 -.00000094  00000+0  65499-4 0  9991
2 65313  50.0070  99.5606 0000103 314.5912  45.4952 13.29319727 43657
HULIANWANG DIGUI-82     
1 65817U 25220A   26197.62813644  .00000014  00000+0 -20750-5 0  9991
2 65817  86.4951  33.9146 0002173 100.2801 259.8578 13.24409598 38812
HULIANWANG DIGUI-83     
1 65818U 25220B   26197.62064719  .00000003  00000+0 -27138-4 0  9997
2 65818  86.4974  33.9766 0002200  99.5680 260.5703 13.24409896 38812
HULIANWANG DIGUI-84     
1 65819U 25220C   26197.61305519  .00000000  00000+0 -33647-4 0  9992
2 65819  86.4911  33.7896 0002149 100.3528 259.7848 13.24409746 38814
HULIANWANG DIGUI-85     
1 65820U 25220D   26197.83214367 -.00000001  00000+0 -36474-4 0  9991
2 65820  86.4972  33.8879 0002120 101.5970 258.5402 13.24408671 38840
HULIANWANG DIGUI-86     
1 65821U 25220E   26197.59808394  .00000011  00000+0 -87554-5 0  9990
2 65821  86.4952  33.8983 0002063  85.3375 274.7994 13.24411530 38810
HULIANWANG DIGUI-87     
1 65995U 25231A   26197.33473448 -.00000098  00000+0  56555-4 0  9995
2 65995  50.0007  71.2933 0000520 354.7038   5.3829 13.29328137 36768
HULIANWANG DIGUI-88     
1 65996U 25231B   26197.11757510 -.00000101  00000+0  49632-4 0  9990
2 65996  49.9995  72.1189 0000502 338.2135  21.8715 13.29323745 36734
HULIANWANG DIGUI-89     
1 65997U 25231C   26197.62707942 -.00000091  00000+0  70752-4 0  9996
2 65997  49.9969  70.0964 0000569 346.0526  14.0330 13.29328008 36800
HULIANWANG DIGUI-90     
1 65998U 25231D   26197.61879692 -.00000093  00000+0  66182-4 0  9992
2 65998  50.0000  70.1160 0000545 342.9061  17.1792 13.29326413 36806
HULIANWANG DIGUI-91     
1 65999U 25231E   26197.00900376 -.00000091  00000+0  71919-4 0  9992
2 65999  50.0018  72.2724 0000518 340.6024  19.4829 13.29327064 36729
